start=new Date('%Y-%m-27T00:00:00.000Z').valueOf();
sats=[{"BSTAR":"-0.00001403000000","REF_FRAME":"TEME","EPHEMERIS_TYPE":"0","OBJECT_TYPE":"PAYLOAD","EPOCH":"2021-08-21T21:50:15.126720","MEAN_ELEMENT_THEORY":"SGP4","RCS_SIZE":"LARGE","REV_AT_EPOCH":"3198","MEAN_MOTION_DOT":"-0.00000321","CENTER_NAME":"EARTH","FILE":"3101032","DECAY_DATE":null,"ARG_OF_PERICENTER":"311.0641","TLE_LINE2":"2 47420  97.4905 294.5777 0000953 311.0641  49.0509 15.14324679 31987","ELEMENT_SET_NO":"999","SEMIMAJOR_AXIS":"6901.167","NORAD_CAT_ID":"47420","SITE":"AFETR","ECCENTRICITY":"0.00009530","LAUNCH_DATE":"2021-01-24","INCLINATION":"97.4905","PERIAPSIS":"522.374","MEAN_MOTION":"15.14324679","OBJECT_NAME":"STARLINK-2206","CLASSIFICATION_TYPE":"U","TIME_SYSTEM":"UTC","RA_OF_ASC_NODE":"294.5777","TLE_LINE1":"1 47420U 21006H   21233.90989730 -.00000321  00000-0 -14030-4 0  9992","MEAN_MOTION_DDOT":"0.0000000000000","MEAN_ANOMALY":"49.0509","COUNTRY_CODE":"US","OBJECT_ID":"2021-006H","APOAPSIS":"523.689","PERIOD":"95.092","GP_ID":"183213899"},{"TIME_SYSTEM":"UTC","CLASSIFICATION_TYPE":"U","OBJECT_NAME":"STARLINK-2207","MEAN_MOTION":"15.14330150","PERIAPSIS":"522.202","INCLINATION":"97.4906","GP_ID":"183214147","APOAPSIS":"523.828","PERIOD":"95.092","OBJECT_ID":"2021-006J","COUNTRY_CODE":"US","MEAN_MOTION_DDOT":"0.0000000000000","MEAN_ANOMALY":"46.3354","TLE_LINE1":"1 47421U 21006J   21233.91035794  .00002072  00000-0  11666-3 0  9990","RA_OF_ASC_NODE":"294.5780","FILE":"3101032","CENTER_NAME":"EARTH","MEAN_MOTION_DOT":"0.00002072","REV_AT_EPOCH":"3198","RCS_SIZE":"LARGE","MEAN_ELEMENT_THEORY":"SGP4","EPOCH":"2021-08-21T21:50:54.926016","OBJECT_TYPE":"PAYLOAD","EPHEMERIS_TYPE":"0","REF_FRAME":"TEME","BSTAR":"0.00011666000000","LAUNCH_DATE":"2021-01-24","ECCENTRICITY":"0.00011780","SITE":"AFETR","NORAD_CAT_ID":"47421","SEMIMAJOR_AXIS":"6901.150","ELEMENT_SET_NO":"999","TLE_LINE2":"2 47421  97.4906 294.5780 0001178 313.7780  46.3354 15.14330150 31985","ARG_OF_PERICENTER":"313.7780","DECAY_DATE":null},{"TIME_SYSTEM":"UTC","CLASSIFICATION_TYPE":"U","INCLINATION":"97.4913","PERIAPSIS":"522.250","OBJECT_NAME":"STARLINK-2208","MEAN_MOTION":"15.14323511","APOAPSIS":"523.820","PERIOD":"95.092","GP_ID":"183214397","OBJECT_ID":"2021-006K","TLE_LINE1":"1 47422U 21006K   21233.90852777 -.00000235  00000-0 -93420-5 0  9999","RA_OF_ASC_NODE":"294.5904","COUNTRY_CODE":"US","MEAN_MOTION_DDOT":"0.0000000000000","MEAN_ANOMALY":"54.7762","REV_AT_EPOCH":"3198","MEAN_MOTION_DOT":"-0.00000235","MEAN_ELEMENT_THEORY":"SGP4","RCS_SIZE":"LARGE","FILE":"3101032","CENTER_NAME":"EARTH","REF_FRAME":"TEME","BSTAR":"-0.00000934200000","OBJECT_TYPE":"PAYLOAD","EPOCH":"2021-08-21T21:48:16.799328","EPHEMERIS_TYPE":"0","SITE":"AFETR","ECCENTRICITY":"0.00011380","LAUNCH_DATE":"2021-01-24","ELEMENT_SET_NO":"999","SEMIMAJOR_AXIS":"6901.170","NORAD_CAT_ID":"47422","DECAY_DATE":null,"ARG_OF_PERICENTER":"305.3363","TLE_LINE2":"2 47422  97.4913 294.5904 0001138 305.3363  54.7762 15.14323511 31981"},{"OBJECT_ID":"2021-009A","GP_ID":"183213915","APOAPSIS":"547.390","PERIOD":"95.592","RA_OF_ASC_NODE":"267.5475","TLE_LINE1":"1 47548U 21009A   21233.82024073  .00000601  00000-0  59223-4 0  9999","MEAN_ANOMALY":"200.6124","MEAN_MOTION_DDOT":"0.0000000000000","COUNTRY_CODE":"US","CLASSIFICATION_TYPE":"U","TIME_SYSTEM":"UTC","PERIAPSIS":"547.003","INCLINATION":"53.0553","MEAN_MOTION":"15.06405520","OBJECT_NAME":"STARLINK-1782","NORAD_CAT_ID":"47548","SEMIMAJOR_AXIS":"6925.332","ELEMENT_SET_NO":"999","ECCENTRICITY":"0.00002790","LAUNCH_DATE":"2021-02-04","SITE":"AFETR","DECAY_DATE":null,"TLE_LINE2":"2 47548  53.0553 267.5475 0000279 159.4876 200.6124 15.06405520 30607","ARG_OF_PERICENTER":"159.4876","RCS_SIZE":"LARGE","MEAN_ELEMENT_THEORY":"SGP4","MEAN_MOTION_DOT":"0.00000601","REV_AT_EPOCH":"3060","CENTER_NAME":"EARTH","FILE":"3101032","BSTAR":"0.00005922300000","REF_FRAME":"TEME","EPHEMERIS_TYPE":"0","EPOCH":"2021-08-21T19:41:08.799072","OBJECT_TYPE":"PAYLOAD"},{"FILE":"3101032","CENTER_NAME":"EARTH","REV_AT_EPOCH":"3060","MEAN_MOTION_DOT":"0.00000572","MEAN_ELEMENT_THEORY":"SGP4","RCS_SIZE":"LARGE","OBJECT_TYPE":"PAYLOAD","EPOCH":"2021-08-21T19:35:49.861248","EPHEMERIS_TYPE":"0","REF_FRAME":"TEME","BSTAR":"0.00005728300000","SITE":"AFETR","ECCENTRICITY":"0.00002890","LAUNCH_DATE":"2021-02-04","ELEMENT_SET_NO":"999","NORAD_CAT_ID":"47549","SEMIMAJOR_AXIS":"6925.334","ARG_OF_PERICENTER":"203.1397","TLE_LINE2":"2 47549  53.0547 267.5595 0000289 203.1397 156.9579 15.06404844 30605","DECAY_DATE":null,"TIME_SYSTEM":"UTC","CLASSIFICATION_TYPE":"U","OBJECT_NAME":"STARLINK-1806","MEAN_MOTION":"15.06404844","INCLINATION":"53.0547","PERIAPSIS":"546.999","APOAPSIS":"547.399","PERIOD":"95.592","GP_ID":"183214163","OBJECT_ID":"2021-009B","COUNTRY_CODE":"US","MEAN_MOTION_DDOT":"0.0000000000000","MEAN_ANOMALY":"156.9579","TLE_LINE1":"1 47549U 21009B   21233.81654932  .00000572  00000-0  57283-4 0  9993","RA_OF_ASC_NODE":"267.5595"},{"ELEMENT_SET_NO":"999","SEMIMAJOR_AXIS":"6925.410","NORAD_CAT_ID":"47550","SITE":"AFETR","ECCENTRICITY":"0.00008730","LAUNCH_DATE":"2021-02-04","ARG_OF_PERICENTER":"89.7027","TLE_LINE2":"2 47550  53.0537 257.7967 0000873  89.7027 270.4062 15.06379911 30736","DECAY_DATE":null,"CENTER_NAME":"EARTH","FILE":"3101032","MEAN_ELEMENT_THEORY":"SGP4","RCS_SIZE":"LARGE","REV_AT_EPOCH":"3073","MEAN_MOTION_DOT":"0.00003210","EPHEMERIS_TYPE":"0","OBJECT_TYPE":"PAYLOAD","EPOCH":"2021-08-21T18:17:34.735776","BSTAR":"0.00023439000000","REF_FRAME":"TEME","OBJECT_ID":"2021-009C","PERIOD":"95.593","APOAPSIS":"547.880","GP_ID":"183214413","MEAN_MOTION_DDOT":"0.0000000000000","MEAN_ANOMALY":"270.4062","COUNTRY_CODE":"US","RA_OF_ASC_NODE":"257.7967","TLE_LINE1":"1 47550U 21009C   21233.76220759  .00003210  00000-0  23439-3 0  9992","CLASSIFICATION_TYPE":"U","TIME_SYSTEM":"UTC","MEAN_MOTION":"15.06379911","OBJECT_NAME":"STARLINK-1909","INCLINATION":"53.0537","PERIAPSIS":"546.671"},{"TLE_LINE1":"1 47551U 21009D   21233.82301352  .00000515  00000-0  53408-4 0  9994","RA_OF_ASC_NODE":"277.5268","COUNTRY_CODE":"US","MEAN_MOTION_DDOT":"0.0000000000000","MEAN_ANOMALY":"248.8319","PERIOD":"95.593","APOAPSIS":"547.380","GP_ID":"183215151","OBJECT_ID":"2021-009D","INCLINATION":"53.0548","PERIAPSIS":"547.097","OBJECT_NAME":"STARLINK-1938","MEAN_MOTION":"15.06391930","TIME_SYSTEM":"UTC","CLASSIFICATION_TYPE":"U","DECAY_DATE":null,"ARG_OF_PERICENTER":"111.2691","TLE_LINE2":"2 47551  53.0548 277.5268 0000204 111.2691 248.8319 15.06391930 30468","SITE":"AFETR","LAUNCH_DATE":"2021-02-04","ECCENTRICITY":"0.00002040","ELEMENT_SET_NO":"999","SEMIMAJOR_AXIS":"6925.373","NORAD_CAT_ID":"47551","REF_FRAME":"TEME","BSTAR":"0.00005340800000","OBJECT_TYPE":"PAYLOAD","EPOCH":"2021-08-21T19:45:08.368128","EPHEMERIS_TYPE":"0","REV_AT_EPOCH":"3046","MEAN_MOTION_DOT":"0.00000515","MEAN_ELEMENT_THEORY":"SGP4","RCS_SIZE":"LARGE","FILE":"3101032","CENTER_NAME":"EARTH"},{"SITE":"AFETR","LAUNCH_DATE":"2021-02-04","ECCENTRICITY":"0.00002440","ELEMENT_SET_NO":"999","SEMIMAJOR_AXIS":"6925.357","NORAD_CAT_ID":"47552","ARG_OF_PERICENTER":"182.1964","TLE_LINE2":"2 47552  53.0556 267.5154 0000244 182.1964 177.9024 15.06397116 30608","DECAY_DATE":null,"FILE":"3101032","CENTER_NAME":"EARTH","REV_AT_EPOCH":"3060","MEAN_MOTION_DOT":"-0.00001205","MEAN_ELEMENT_THEORY":"SGP4","RCS_SIZE":"LARGE","OBJECT_TYPE":"PAYLOAD","EPOCH":"2021-08-21T19:51:45.987840","EPHEMERIS_TYPE":"0","REF_FRAME":"TEME","BSTAR":"-0.00006205400000","PERIOD":"95.592","APOAPSIS":"547.391","GP_ID":"183213415","OBJECT_ID":"2021-009E","COUNTRY_CODE":"US","MEAN_ANOMALY":"177.9024","MEAN_MOTION_DDOT":"0.0000000000000","TLE_LINE1":"1 47552U 21009E   21233.82761560 -.00001205  00000-0 -62054-4 0  9992","RA_OF_ASC_NODE":"267.5154","TIME_SYSTEM":"UTC","CLASSIFICATION_TYPE":"U","OBJECT_NAME":"STARLINK-1940","MEAN_MOTION":"15.06397116","INCLINATION":"53.0556","PERIAPSIS":"547.053"},{"SEMIMAJOR_AXIS":"6925.352","NORAD_CAT_ID":"47553","ELEMENT_SET_NO":"999","ECCENTRICITY":"0.00076950","LAUNCH_DATE":"2021-02-04","SITE":"AFETR","TLE_LINE2":"2 47553  53.0550 267.5858 0007695  66.2753 293.9042 15.06398789 30605","ARG_OF_PERICENTER":"66.2753","DECAY_DATE":null,"CENTER_NAME":"EARTH","FILE":"3101032","RCS_SIZE":"LARGE","MEAN_ELEMENT_THEORY":"SGP4","MEAN_MOTION_DOT":"0.00000324","REV_AT_EPOCH":"3060","EPHEMERIS_TYPE":"0","EPOCH":"2021-08-21T19:30:32.822496","OBJECT_TYPE":"PAYLOAD","BSTAR":"0.00004079600000","REF_FRAME":"TEME","OBJECT_ID":"2021-009F","GP_ID":"183213663","APOAPSIS":"552.546","PERIOD":"95.592","MEAN_ANOMALY":"293.9042","MEAN_MOTION_DDOT":"0.0000000000000","COUNTRY_CODE":"US","RA_OF_ASC_NODE":"267.5858","TLE_LINE1":"1 47553U 21009F   21233.81287989  .00000324  00000-0  40796-4 0  9998","CLASSIFICATION_TYPE":"U","TIME_SYSTEM":"UTC","MEAN_MOTION":"15.06398789","OBJECT_NAME":"STARLINK-1951","PERIAPSIS":"541.888","INCLINATION":"53.0550"},{"PERIAPSIS":"543.376","INCLINATION":"53.0533","MEAN_MOTION":"15.06390900","OBJECT_NAME":"STARLINK-1953","CLASSIFICATION_TYPE":"U","TIME_SYSTEM":"UTC","RA_OF_ASC_NODE":"288.9699","TLE_LINE1":"1 47554U 21009G   21233.50140713  .00000446  00000-0  48940-4 0  9992","MEAN_MOTION_DDOT":"0.0000000000000","MEAN_ANOMALY":"159.2157","COUNTRY_CODE":"US","OBJECT_ID":"2021-009G","GP_ID":"183186285","APOAPSIS":"551.107","PERIOD":"95.593","BSTAR":"0.00004894000000","REF_FRAME":"TEME","EPHEMERIS_TYPE":"0","EPOCH":"2021-08-21T12:02:01.576032","OBJECT_TYPE":"PAYLOAD","RCS_SIZE":"LARGE","MEAN_ELEMENT_THEORY":"SGP4","MEAN_MOTION_DOT":"0.00000446","REV_AT_EPOCH":"3027","CENTER_NAME":"EARTH","FILE":"3100831","DECAY_DATE":null,"TLE_LINE2":"2 47554  53.0533 288.9699 0005581 200.8605 159.2157 15.06390900 30272","ARG_OF_PERICENTER":"200.8605","NORAD_CAT_ID":"47554","SEMIMAJOR_AXIS":"6925.376","ELEMENT_SET_NO":"999","LAUNCH_DATE":"2021-02-04","ECCENTRICITY":"0.00055810","SITE":"AFETR"}];
